OBJECT_NAME,OBJECT_ID,EPOCH,MEAN_MOTION,ECCENTRICITY,INCLINATION,RA_OF_ASC_NODE,ARG_OF_PERICENTER,MEAN_ANOMALY,EPHEMERIS_TYPE,CLASSIFICATION_TYPE,NORAD_CAT_ID,ELEMENT_SET_NO,REV_AT_EPOCH,BSTAR,MEAN_MOTION_DOT,MEAN_MOTION_DDOT
ONEWEB-0700,2024-188N,2026-06-09T08:27:23.522976,13.10370160,.000177,87.8856,37.7342,104.4633,255.6691,0,U,61606,999,8227,.1034E-2,.374E-5,0
ONEWEB-0701,2024-188P,2026-06-09T08:51:16.281216,13.10369959,.000134,87.8841,37.8226,108.4378,251.6895,0,U,61607,999,8228,-.11229E-2,-.379E-5,0
ONEWEB-0702,2024-188Q,2026-06-09T07:31:32.363328,13.11416095,.0001722,87.8910,22.5529,118.2618,241.8684,0,U,61608,999,8345,.46809E-3,.179E-5,0
ONEWEB-0704,2024-188R,2026-06-09T08:34:33.604032,13.10369900,.0001913,87.8850,37.8134,116.2868,243.8456,0,U,61609,999,8226,.3462E-3,.134E-5,0
ONEWEB-0705,2024-188S,2026-06-09T08:41:44.286432,13.10369419,.0002474,87.8845,37.8180,103.7952,256.3450,0,U,61610,999,7443,.15009E-2,.537E-5,0
ONEWEB-0706,2024-188T,2026-06-09T10:10:10.962336,13.10371244,.0001903,87.8843,37.8116,101.2990,258.8351,0,U,61611,999,8236,.15484E-2,.553E-5,0
ONEWEB-0707,2024-188U,2026-06-09T08:29:46.844160,13.10370045,.0001823,87.8846,37.8189,100.9766,259.1567,0,U,61612,999,8229,.86948E-3,.316E-5,0
ONEWEB-0708,2024-188V,2026-06-09T08:56:03.033312,13.10369985,.000228,87.8839,37.8344,87.0792,273.0596,0,U,61613,999,8227,-.1466E-2,-.499E-5,0
