ONEWEB-0700             
1 61606U 24188N   26160.35235559  .00000374  00000+0  10340-2 0  9997
2 61606  87.8856  37.7342 0001770 104.4633 255.6691 13.10370160 82270
ONEWEB-0701             
1 61607U 24188P   26160.36893844 -.00000379  00000+0 -11229-2 0  9990
2 61607  87.8841  37.8226 0001340 108.4378 251.6895 13.10369959 82287
ONEWEB-0702             
1 61608U 24188Q   26160.31356902  .00000179  00000+0  46809-3 0  9994
2 61608  87.8910  22.5529 0001722 118.2618 241.8684 13.11416095 83454
ONEWEB-0704             
1 61609U 24188R   26160.35733338  .00000134  00000+0  34620-3 0  9990
2 61609  87.8850  37.8134 0001913 116.2868 243.8456 13.10369900 82264
ONEWEB-0705             
1 61610U 24188S   26160.36231813  .00000537  00000+0  15009-2 0  9990
2 61610  87.8845  37.8180 0002474 103.7952 256.3450 13.10369419 74437
ONEWEB-0706             
1 61611U 24188T   26160.42373799  .00000553  00000+0  15484-2 0  9993
2 61611  87.8843  37.8116 0001903 101.2990 258.8351 13.10371244 82363
ONEWEB-0707             
1 61612U 24188U   26160.35401440  .00000316  00000+0  86948-3 0  9992
2 61612  87.8846  37.8189 0001823 100.9766 259.1567 13.10370045 82298
ONEWEB-0708             
1 61613U 24188V   26160.37225733 -.00000499  00000+0 -14660-2 0  9999
2 61613  87.8839  37.8344 0002280  87.0792 273.0596 13.10369985 82272
